{
  "type": "FeatureCollection",
  "features": [
    {
      "type": "Feature",
      "properties": {
        "ISO_A2": "GB",
        "NAME": "United Kingdom"
      },
      "geometry": {
        "type": "Polygon",
        "coordinates": [
          [
            [-8.7, 49.8],
            [2.0, 49.8],
            [2.0, 59.5],
            [-8.7, 59.5],
            [-8.7, 49.8]
          ]
        ]
      }
    },
    {
      "type": "Feature",
      "properties": {
        "ISO_A2": "AU",
        "NAME": "Australia"
      },
      "geometry": {
        "type": "Polygon",
        "coordinates": [
          [
            [113.0, -44.0],
            [154.0, -44.0],
            [154.0, -10.0],
            [113.0, -10.0],
            [113.0, -44.0]
          ]
        ]
      }
    },
    {
      "type": "Feature",
      "properties": {
        "ISO_A2": "FR",
        "NAME": "France"
      },
      "geometry": {
        "type": "Polygon",
        "coordinates": [
          [
            [-5.5, 42.0],
            [8.8, 42.0],
            [8.8, 51.5],
            [-5.5, 51.5],
            [-5.5, 42.0]
          ]
        ]
      }
    },
    {
      "type": "Feature",
      "properties": {
        "ISO_A2": "NO",
        "NAME": "Norway"
      },
      "geometry": {
        "type": "Polygon",
        "coordinates": [
          [
            [4.0, 58.0],
            [31.5, 58.0],
            [31.5, 71.3],
            [4.0, 71.3],
            [4.0, 58.0]
          ]
        ]
      }
    },
    {
      "type": "Feature",
      "properties": {
        "ISO_A2": "BR",
        "NAME": "Brazil"
      },
      "geometry": {
        "type": "Polygon",
        "coordinates": [
          [
            [-74.0, -34.0],
            [-34.0, -34.0],
            [-34.0, 5.5],
            [-74.0, 5.5],
            [-74.0, -34.0]
          ]
        ]
      }
    },
    {
      "type": "Feature",
      "properties": {
        "ISO_A2": "RU",
        "NAME": "Russia"
      },
      "geometry": {
        "type": "Polygon",
        "coordinates": [
          [
            [28.0, 45.0],
            [180.0, 45.0],
            [180.0, 77.0],
            [28.0, 77.0],
            [28.0, 45.0]
          ]
        ]
      }
    },
    {
      "type": "Feature",
      "properties": {
        "ISO_A2": "CN",
        "NAME": "China"
      },
      "geometry": {
        "type": "Polygon",
        "coordinates": [
          [
            [73.0, 18.0],
            [135.0, 18.0],
            [135.0, 53.5],
            [73.0, 53.5],
            [73.0, 18.0]
          ]
        ]
      }
    },
    {
      "type": "Feature",
      "properties": {
        "ISO_A2": "JP",
        "NAME": "Japan"
      },
      "geometry": {
        "type": "Polygon",
        "coordinates": [
          [
            [129.0, 31.0],
            [146.0, 31.0],
            [146.0, 45.8],
            [129.0, 45.8],
            [129.0, 31.0]
          ]
        ]
      }
    }
  ]
}
